VDNH-80                 
1 44392U 19038G   21301.52626356  .00002350  00000-0  13180-3 0  9991
2 44392  97.6044 265.7853 0019759 209.7708 245.1027 15.14219674127724
D-STAR ONE (LIGHTSAT)   
1 44393U 19038H   21301.18420319  .00003889  00000-0  21614-3 0  9994
2 44393  97.6055 265.3120 0020125 211.1637 148.8402 15.14136840127861
AMGU-1 (AMURSAT)        
1 44394U 19038J   21301.19967232  .00002455  00000-0  13779-3 0  9997
2 44394  97.6040 265.2677 0020151 211.3477 148.6556 15.14142367127864
DOT-1                   
1 44399U 19038P   21300.84815346  .00002308  00000-0  13362-3 0  9996
2 44399  97.6081 264.2319 0022998 217.4580 142.5049 15.13042326127750
SOKRAT                  
1 44404U 19038U   21300.83762599  .00003962  00000-0  22101-3 0  9991
2 44404  97.6046 264.6427 0020296 214.4958 145.4957 15.13983847127793
LUCKY-7                 
1 44406U 19038W   21300.84429199  .00002411  00000-0  13823-3 0  9999
2 44406  97.6071 264.4868 0022976 209.6415 150.3516 15.13348279127768
D-STAR ONE (EXOCONNECT) 
1 44410U 19038AA  21301.38366807  .00006021  00000-0  32433-3 0  9999
2 44410  97.6013 265.5894 0019853 209.2239 150.7884 15.15023459127911
NARSSCUBE-2             
1 44415U 19022E   21300.97118732  .00003276  00000-0  11740-3 0  9990
2 44415  51.6402 160.0057 0010438 301.1966  58.7991 15.31646215124458
KRAKSAT                 
1 44427U 98067QM  21301.41016169  .00087527  00000-0  48592-3 0  9996
2 44427  51.6407 340.0784 0005851  32.8477  93.2572 15.78756575132383
NARSSCUBE-1             
1 44792U 98067QX  21301.38086072  .00135053  00000-0  64178-3 0  9993
2 44792  51.6345 350.5473 0007097  34.6133 325.5330 15.81961784110476
DUCHIFAT-3              
1 44854U 19089C   21301.42984554  .00001239  00000-0  10478-3 0  9998
2 44854  36.9673  34.1203 0006637 134.6277 225.5048 14.99728220103077
OPS-SAT                 
1 44878U 19092F   21300.73104720  .00004110  00000-0  21085-3 0  9997
2 44878  97.4773 122.3698 0015067  72.3599 287.9278 15.17001265102885
FLORIPASAT-1            
1 44885U 19093G   21301.46565233  .00000578  00000-0  78632-4 0  9992
2 44885  97.9172  19.5784 0013673 224.2103 135.8034 14.82430435100474
HUSKYSAT-1 (HO-107)     
1 45119U 19071J   21300.98463224  .00008453  00000-0  23942-3 0  9995
2 45119  51.6396 113.7528 0011016  52.0092 308.1885 15.37070455 97541
G-SAT                   
1 45597U 98067RK  21301.39158218  .00039289  00000-0  42148-3 0  9997
2 45597  51.6390  20.0652 0003212  73.6711 286.4637 15.63397456 85361
QUETZAL-1               
1 45598U 98067RL  21300.48575255  .00057497  00000-0  51682-3 0  9995
2 45598  51.6389  20.7501 0002206  19.3565 340.7515 15.67670606 85203
BY70-2                  
1 45857U 20042B   21301.47491624  .00001914  00000-0  27571-3 0  9991
2 45857  97.9755  15.8193 0012262 141.7094 218.5016 14.77451738 71186
SALSAT                  
1 46495U 20068K   21300.63307000  .00001340  00000-0  10230-3 0  9996
2 46495  97.7005 237.4071 0016515 350.2141   9.8761 15.03624481 59195
NETSAT-4                
1 46504U 20068U   21300.58989849  .00000385  00000-0  33753-4 0  9992
2 46504  97.6964 236.4081 0014432  31.2751 328.9376 15.02276750 59073
NETSAT-3                
1 46505U 20068V   21300.59966379  .00000100  00000-0  12181-4 0  9994
2 46505  97.7005 236.3761 0014358  43.9428 316.2949 15.02259449 59086
NETSAT-1                
1 46506U 20068W   21300.54262848  .00000567  00000-0  47568-4 0  9994
2 46506  97.7009 236.2756 0012695  59.6919 300.5572 15.02239135 59072
NETSAT-2                
1 46507U 20068X   21300.54848763  .00000782  00000-0  63860-4 0  9993
2 46507  97.7006 236.2763 0011754  68.3707 291.8762 15.02217421 59027
BY70-3                  
1 46839U 20079N   21301.49624140  .00006754  00000-0  20157-3 0  9995
2 46839  97.2284  12.7185 0008697  90.2357 328.4252 15.34910140 54603
SPOC                    
1 46921U 98067RR  21300.83607475  .00025911  00000-0  34390-3 0  9998
2 46921  51.6411  34.3942 0001026 255.8400 104.2478 15.58053069 55468
BOBCAT-1                
1 46922U 98067RS  21300.76574492  .00041685  00000-0  47324-3 0  9990
2 46922  51.6424  30.9562 0001633 306.7067  53.3777 15.61916694 55464
NEUTRON-1               
1 46923U 98067RT  21300.79846397  .00026817  00000-0  35746-3 0  9995
2 46923  51.6419  34.8901 0001334 272.6431  87.4408 15.57917805 55484
1998-067RU              
1 46924U 98067RU  21301.22113346  .00130234  00000-0  90497-3 0  9999
2 46924  51.6352  19.6427 0005690 347.1762  12.9092 15.73478221 55685
DESCENT                 
1 46927U 98067RX  21299.77659032  .00025352  00000-0  33841-3 0  9999
2 46927  51.6419  40.0610 0001927 281.2342  78.8433 15.57912964 55246
UVSQ-SAT                
1 47438U 21006AB  21301.41972666  .00002396  00000-0  13713-3 0  9991
2 47438  97.4722   0.1813 0012599   6.3283 353.8105 15.13531228 42169
SOMP2B                  
1 47445U 21006AJ  21300.72153002  .00001886  00000-0  10930-3 0  9998
2 47445  97.4695 359.3280 0012430  12.8853 347.2693 15.13345755 42057
WARP-01                 
1 47924U 98067SA  21301.31541265  .00035534  00000-0  49332-3 0  9994
2 47924  51.6415  38.3132 0004026 262.8260  97.2274 15.56668236 35454
RSP-01                  
1 47925U 98067SB  21300.72080949  .00028065  00000-0  40930-3 0  9992
2 47925  51.6421  41.8564 0000679 169.5495 190.5510 15.55460961 35334
TAUSAT-1                
1 47926U 98067SC  21300.55093689  .00036859  00000-0  50556-3 0  9994
2 47926  51.6411  41.4608 0001188 172.8255 187.2754 15.56982901 35311
TSURU                   
1 47927U 98067SD  21300.55914793  .00025640  00000-0  38233-3 0  9997
2 47927  51.6425  43.0267 0000900 160.9479 199.1546 15.54906264 35309
STARS-EC                
1 47928U 98067SE  21301.45017964  .00035662  00000-0  49172-3 0  9991
2 47928  51.6417  37.7175 0004709 267.2199  92.8254 15.56848800 35432
MAYA-2                  
1 47929U 98067SF  21301.32627589  .00024550  00000-0  36568-3 0  9997
2 47929  51.6425  39.1486 0000961 154.1944 205.9095 15.54961901 35381
HIROGARI (OPUSAT-II)    
1 47930U 98067SG  21301.45564547  .00039570  00000-0  53100-3 0  9996
2 47930  51.6418  37.0157 0000158  39.9893 320.1111 15.57536829 35466
GUARANISAT-1            
1 47931U 98067SH  21301.32384184  .00023957  00000-0  35667-3 0  9990
2 47931  51.6426  39.1359 0000944 154.0400 206.0638 15.54991594 35422
DIY-1 (ARDUIQUBE)       
1 47963U 21022AH  21300.70780002  .00005451  00000-0  35602-3 0  9990
2 47963  97.5450 200.6685 0017908 208.5747 151.4501 15.08110927 31821
